#aV2016  3 10  0  0  0.00000000     288 DD+AD WGS84 FIT  NGA
## 1887 345600.00000000   300.00000000 57457 0.0000000000000
+   31     1  2  3  5  6  7  8  9 10 11 12 13 14 15 16 17 18
+         19 20 21 22 23 24 25 26 27 28 29 30 31 32  0  0  0
+          0  0  0  0  0  0  0  0  0  0  0  0  0  0  0  0  0
+          0  0  0  0  0  0  0  0  0  0  0  0  0  0  0  0  0
+          0  0  0  0  0  0  0  0  0  0  0  0  0  0  0  0  0
++         2  2  2  2  2  2  2  2  2  2  2  2  2  2  2  2  2
++         2  2  2  2  2  2  2  2  2  2  2  2  2  2  0  0  0
++         0  0  0  0  0  0  0  0  0  0  0  0  0  0  0  0  0
++         0  0  0  0  0  0  0  0  0  0  0  0  0  0  0  0  0
++         0  0  0  0  0  0  0  0  0  0  0  0  0  0  0  0  0
%c cc cc ccc ccc cccc cccc cccc cccc ccccc ccccc ccccc ccccc
%c cc cc ccc ccc cccc cccc cccc cccc ccccc ccccc ccccc ccccc
%f  0.0000000  0.000000000  0.00000000000  0.000000000000000
%f  0.0000000  0.000000000  0.00000000000  0.000000000000000
%i    0    0    0    0      0      0      0      0         0
%i    0    0    0    0      0      0      0      0         0
/*      NGA, ST. LOUIS,MO.                                  
/*   EPHEMERIS COMPUTED FROM 2 DAYS OF DATA                 
/*   EPOCHA v2.4 SMOOTHER                                   
/*   G1762 IERS2010 SATAF SATAPC                            
*  2016  3 10 18  0  0.00000000
P  1 -22279.718500 -13135.495977   6463.933489     13.987133                    
V  1  -4690.787696  -7210.914358 -30257.617469      0.010603                    
P  2  10450.839718  20755.500838  13655.279582    599.229637                    
V  2 -14395.892384  -8414.134915  24172.972526     -0.002908                    
P  3 -13944.245029  -7233.033780  21418.148155    -34.498700                    
V  3   5294.252198 -26680.039566  -5575.567016     -0.044807                    
P  5   3822.851859  23916.537690 -10741.650019   -138.809580                    
V  5  -5176.303148  12953.857243  27366.129830      0.033229                    
P  6  -3669.794051  15923.648857  20950.567411    158.287096                    
V  6 -20829.949089 -16505.889763   8897.455818      0.058624                    
P  7 -19114.006532     90.192009 -18475.241262    465.897942                    
V  7 -16837.781610 -16541.673075  16831.867022     -0.018009                    
P  8 -15183.731589  -9080.424987 -19760.773814    -26.976751                    
V  8  23246.788521  -9809.885335 -13291.432186     -0.014646                    
P  9 -25342.073209   7638.919753   2269.788315     87.166127                    
V  9   1698.406804  -3794.850484  31449.508176      0.075716                    
P 10  10867.818519 -22103.655397  -9850.878729     30.065540                    
V 10    384.355457  12804.076249 -28327.909991     -0.077289                    
P 11 -23822.929235 -11392.383504  -3636.993848   -636.101955                    
V 11   5338.436003  -3095.043161 -29747.642477     -0.016032                    
P 12  11278.596986  11856.199149  20854.468745    371.859853                    
V 12  -6551.737659  25803.866003 -10849.405979      0.015545                    
P 13   6342.528446  13852.608937 -21885.612459     -2.491573                    
V 13 -26618.920200   6656.406833  -3610.632916     -0.028237                    
P 14  17455.739133 -14707.209618  13704.496527     -1.735612                    
V 14  16992.924089  -2479.209907 -24906.708377     -0.022313                    
P 15  19450.174645   5786.795592 -17428.686432   -301.086628                    
V 15 -19336.327916  10385.756642 -17912.022473     -0.018114                    
P 16  -1216.735526 -24073.055355 -10787.336191    -33.264482                    
V 16   5163.575890 -12780.106697  28553.033614      0.029579                    
P 17 -18410.525275  14607.772535  12512.777861   -201.862164                    
V 17 -15310.353405   2677.047349 -26530.528737     -0.005910                    
P 18  15163.002740 -11953.965865 -17599.537062    492.193188                    
V 18  -1073.352677  23720.301045 -16814.585330      0.041237                    
P 19  -9504.781881  15836.233637  19002.064697   -525.226685                    
V 19 -23942.208257   5079.308643 -15639.555810     -0.002129                    
P 20  13997.480547  10856.031462 -19932.808596    398.393623                    
V 20  -3758.842259  24870.932979  11043.503233      0.025442                    
P 21  17195.130465  -4275.417613 -19124.107942   -514.251098                    
V 21  19269.941996  17381.074878  12673.582444     -0.017009                    
P 22  -5306.327440 -23392.654752  11496.984345    383.723035                    
V 22   5486.012938 -13718.370142 -26068.420829     -0.065369                    
P 23 -23755.574610   -947.474965  12458.661160   -164.015273                    
V 23  13699.243042  -7428.401293  25489.122818     -0.018174                    
P 24  21982.117084  14719.103278   3291.613734    -13.704233                    
V 24   1428.533218   4961.446495 -31024.021533     -0.005384                    
P 25  15092.799662  -1656.870620  21659.589103   -131.721028                    
V 25  -4457.422544  27383.571684   5361.946213     -0.069154                    
P 26   4342.845572 -26177.352123   -232.589838   -287.316857                    
V 26   2865.823403    192.743678  31785.383617     -0.148412                    
P 27  -4232.937757 -14432.064081 -21909.266519     70.694815                    
V 27  26105.746227  -9385.807092   1294.209684      0.037092                    
P 28 -12099.100121  21186.251666  -9805.391950    508.156379                    
V 28   1498.197902 -13408.859276 -29021.679449      0.027214                    
P 29  25705.265467  -4044.967212   5213.523089    655.661332                    
V 29  -5655.241572   4102.942516  31207.219732      0.005579                    
P 30 -11905.618368   9853.527154 -21612.636876    105.336544                    
V 30 -19593.939026 -19222.777503   1946.947515      0.039641                    
P 31   2010.976724 -16920.849078  20381.834337    279.005740                    
V 31  19813.747254  16420.101514  12094.433389     -0.017227                    
P 32  15601.620704 -16242.422106  14078.208752      9.980927                    
V 32  17531.230123  -4130.761684 -24193.970264      0.002041                    
EOF
